[{"OBJECT_NAME":"STARLINK-5754","OBJECT_ID":"2023-020L","EPOCH":"2026-03-09T22:00:01.999584","MEAN_MOTION":15.10899351,"ECCENTRICITY":0.00010973,"INCLINATION":43.0004,"RA_OF_ASC_NODE":3.1467,"ARG_OF_PERICENTER":303.9575,"MEAN_ANOMALY":160.1535,"EPHEMERIS_TYPE":0,"CLASSIFICATION_TYPE":"U","NORAD_CAT_ID":55579,"ELEMENT_SET_NO":999,"REV_AT_EPOCH":573,"BSTAR":0.072815742,"MEAN_MOTION_DOT":0.01342281,"MEAN_MOTION_DDOT":0},{"OBJECT_NAME":"COSMOS 2251 DEB","OBJECT_ID":"1993-036BBV","EPOCH":"2026-02-27T18:16:57.594144","MEAN_MOTION":15.17732907,"ECCENTRICITY":0.00280345,"INCLINATION":73.8349,"RA_OF_ASC_NODE":92.9986,"ARG_OF_PERICENTER":278.5786,"MEAN_ANOMALY":81.2232,"EPHEMERIS_TYPE":0,"CLASSIFICATION_TYPE":"U","NORAD_CAT_ID":36470,"ELEMENT_SET_NO":999,"REV_AT_EPOCH":67258,"BSTAR":0.0034538195,"MEAN_MOTION_DOT":0.00071068,"MEAN_MOTION_DDOT":0}]
